FLOCK 4G-6              
1 62660U 25009BD  26068.71061311  .00012261  00000+0  45910-3 0  9991
2 62660  97.3980 150.7943 0002380 348.2637  11.8546 15.27432125121307
STARLINK-34153          
1 63967U 25099R   26068.32091520  .00024065  00000+0  88076-3 0  9998
2 63967  43.0017 177.9718 0002962 274.6015  85.4498 15.27593751 47286
